HIMAWARI-8              
1 40267U 14060A   17362.08333333  .00000000  00000-0  00000-0 0 01234
2 40267 000.0100 068.9589 0001468 182.9617 015.4992 01.00272646 11842
HIMAWARI-8              
1 40267U 14060A   17355.04166667  .00000000  00000-0  00000-0 0 01225
2 40267 000.0088 297.7660 0000779 001.8986 305.8066 01.00270760 11776
HIMAWARI-8              
1 40267U 14060A   17348.08333333  .00000000  00000-0  00000-0 0 01216
2 40267 000.0263 072.9841 0000923 165.8963 014.7328 01.00270318 11701
HIMAWARI-8              
1 40267U 14060A   17341.00000000  .00000000  00000-0  00000-0 0 01202
2 40267 000.0073 307.2232 0001277 354.5740 274.8289 01.00274200 11632
HIMAWARI-8              
1 40267U 14060A   17334.00000000  .00000000  00000-0  00000-0 0 01192
2 40267 000.0415 117.2820 0001548 108.6548 343.8312 01.00268382 11569
HIMAWARI-8              
1 40267U 14060A   17327.00000000  .00000000  00000-0  00000-0 0 01183
2 40267 000.0026 299.2712 0000591 334.2443 289.3420 01.00273003 11498
HIMAWARI-8              
1 40267U 14060A   17320.00000000  .00000000  00000-0  00000-0 0 01175
2 40267 000.0051 036.3408 0001255 196.2533 323.3737 01.00267996 11429
HIMAWARI-8              
1 40267U 14060A   17313.00000000  .00000000  00000-0  00000-0 0 01166
2 40267 000.0066 008.3568 0001371 282.7288 257.9500 01.00273981 11351
HIMAWARI-8              
1 40267U 14060A   17306.00000000  .00000000  00000-0  00000-0 0 01157
2 40267 000.0499 065.8504 0001554 159.1614 317.1624 01.00268237 11288
HIMAWARI-8              
1 40267U 14060A   17299.12500000  .00000000  00000-0  00000-0 0 01145
2 40267 000.0058 062.8572 0000571 148.9947 008.5158 01.00271041 11217
HIMAWARI-8              
1 40267U 14060A   17292.12500000  .00000000  00000-0  00000-0 0 01137
2 40267 000.0165 077.3763 0001203 115.9065 020.1904 01.00267263 11149
HIMAWARI-8              
1 40267U 14060A   17285.00000000  .00000000  00000-0  00000-0 0 01120
2 40267 000.0089 282.7254 0001197 323.6322 275.0592 01.00273113 11074
HIMAWARI-8              
1 40267U 14060A   17278.00000000  .00000000  00000-0  00000-0 0 01111
2 40267 000.0174 153.1153 0001786 057.1544 304.2853 01.00269364 11008
HIMAWARI-8              
1 40267U 14060A   17271.41666667  .00000000  00000-0  00000-0 0 01105
2 40267 000.0083 196.7275 0001117 348.2271 113.0835 01.00269184 10931
HIMAWARI-8              
1 40267U 14060A   17264.00000000  .00000000  00000-0  00000-0 0 01093
2 40267 000.0073 177.1354 0001175 027.4079 296.1889 01.00273026 10850
HIMAWARI-8              
1 40267U 14060A   17257.00000000  .00000000  00000-0  00000-0 0 01084
2 40267 000.0199 224.1570 0001004 005.4941 264.1656 01.00270256 10788
HIMAWARI-8              
1 40267U 14060A   17250.00000000  .00000000  00000-0  00000-0 0 01076
2 40267 000.0206 216.4220 0001519 341.3780 289.1479 01.00272819 10717
HIMAWARI-8              
1 40267U 14060A   17243.00000000  .00000000  00000-0  00000-0 0 01067
2 40267 000.0439 267.7320 0000900 246.7891 325.4737 01.00268851 10643
HIMAWARI-8              
1 40267U 14060A   17236.00000000  .00000000  00000-0  00000-0 0 01058
2 40267 000.0501 255.0471 0000734 304.7499 273.3154 01.00275125 10572
HIMAWARI-8              
1 40267U 14060A   17229.00000000  .00000000  00000-0  00000-0 0 01049
2 40267 000.0583 268.2182 0000704 244.1342 313.8380 01.00269166 10500
HIMAWARI-8              
1 40267U 14060A   17222.00000000  .00000000  00000-0  00000-0 0 01031
2 40267 000.0176 225.8741 0001229 297.7113 295.7378 01.00273902 10431
HIMAWARI-8              
1 40267U 14060A   17215.00000000  .00000000  00000-0  00000-0 0 01022
2 40267 000.0049 088.3415 0001251 049.2249 314.8401 01.00267803 10360
HIMAWARI-8              
1 40267U 14060A   17208.00000000  .00000000  00000-0  00000-0 0 01013
2 40267 000.0107 260.4063 0000595 297.2759 247.8354 01.00276387 10299
HIMAWARI-8              
1 40267U 14060A   17201.08333333  .00000000  00000-0  00000-0 0 01001
2 40267 000.0421 240.3377 0000595 243.1845 345.1563 01.00267640 10228
HIMAWARI-8              
1 40267U 14060A   17194.00000000  .00000000  00000-0  00000-0 0 00993
2 40267 000.0070 211.7723 0001101 293.4006 286.5746 01.00274227 10158
HIMAWARI-8              
1 40267U 14060A   17187.00000000  .00000000  00000-0  00000-0 0 00984
2 40267 000.0167 256.9620 0001406 232.8094 295.0315 01.00267357 10089
HIMAWARI-8              
1 40267U 14060A   17180.04166667  .00000000  00000-0  00000-0 0 00972
2 40267 000.0081 275.0645 0000642 269.8062 248.0838 01.00275403 10011
HIMAWARI-8              
1 40267U 14060A   17173.00000000  .00000000  00000-0  00000-0 0 00967
2 40267 000.0275 282.1976 0000891 210.9495 277.8445 01.00264915  9945
HIMAWARI-8              
1 40267U 14060A   17166.04166667  .00000000  00000-0  00000-0 0 00954
2 40267 000.0187 058.8302 0001102 094.3670 265.9848 01.00274093  9878
HIMAWARI-8              
1 40267U 14060A   17159.00000000  .00000000  00000-0  00000-0 0 00949
2 40267 000.0034 345.4165 0001713 109.8187 301.9900 01.00268158  9802
HIMAWARI-8              
1 40267U 14060A   17152.00000000  .00000000  00000-0  00000-0 0 00931
2 40267 000.0114 005.8089 0000497 050.2902 334.2310 01.00273486  9731
HIMAWARI-8              
1 40267U 14060A   17145.00000000  .00000000  00000-0  00000-0 0 00922
2 40267 000.0154 300.5219 0001061 157.4714 285.4198 01.00267032  9667
HIMAWARI-8              
1 40267U 14060A   17138.00000000  .00000000  00000-0  00000-0 0 00913
2 40267 000.0130 012.2825 0000801 097.4537 266.8128 01.00273487  9597
HIMAWARI-8              
1 40267U 14060A   17131.00000000  .00000000  00000-0  00000-0 0 00905
2 40267 000.0139 308.9526 0001865 135.9667 284.6869 01.00269766  9520
HIMAWARI-8              
1 40267U 14060A   17124.25000000  .00000000  00000-0  00000-0 0 00892
2 40267 000.0558 077.7486 0000455 332.9198 042.3010 01.00274113  9454
HIMAWARI-8              
1 40267U 14060A   17117.04166667  .00000000  00000-0  00000-0 0 00882
2 40267 000.0084 016.5225 0001112 067.2542 287.0916 01.00267422  9382
HIMAWARI-8              
1 40267U 14060A   17110.00000000  .00000000  00000-0  00000-0 0 00878
2 40267 000.0447 067.5509 0000706 021.2579 260.1508 01.00271302  9318
HIMAWARI-8              
1 40267U 14060A   17103.29166667  .00000000  00000-0  00000-0 0 00862
2 40267 000.0093 103.2214 0001560 284.1728 059.9251 01.00271505  9258
HIMAWARI-8              
1 40267U 14060A   17096.12500000  .00000000  00000-0  00000-0 0 00857
2 40267 000.0203 086.2635 0001133 255.6491 038.3423 01.00273468  9177
HIMAWARI-8              
1 40267U 14060A   17089.12500000  .00000000  00000-0  00000-0 0 00848
2 40267 000.0127 352.0408 0001515 036.5222 344.7778 01.00265287  9106
HIMAWARI-8              
1 40267U 14060A   17082.20833333  .00000000  00000-0  00000-0 0 00837
2 40267 000.0213 049.9414 0000777 331.5230 015.0801 01.00275185  9032
HIMAWARI-8              
1 40267U 14060A   17075.00000000  .00000000  00000-0  00000-0 0 00823
2 40267 000.0175 302.1851 0001550 094.0404 278.1766 01.00273088  8965
HIMAWARI-8              
1 40267U 14060A   17067.08333333  .00000000  00000-0  00000-0 0 00819
2 40267 000.0117 331.9413 0001366 349.0428 015.6282 01.00271210  8882
HIMAWARI-8              
1 40267U 14060A   17061.04166667  .00000000  00000-0  00000-0 0 00802
2 40267 000.0405 289.4053 0001003 097.5723 288.6615 01.00272495  8822
HIMAWARI-8              
1 40267U 14060A   17053.00000000  .00000000  00000-0  00000-0 0 00795
2 40267 000.0718 293.7530 0001040 056.8709 302.1140 01.00269539  8741
HIMAWARI-8              
1 40267U 14060A   17047.00000000  .00000000  00000-0  00000-0 0 00787
2 40267 000.0486 289.3794 0001642 088.7873 268.6102 01.00273298  8684
HIMAWARI-8              
1 40267U 14060A   17033.00000000  .00000000  00000-0  00000-0 0 00771
2 40267 000.0435 269.1677 0000783 066.1189 297.7101 01.00273756  8545
HIMAWARI-8              
1 40267U 14060A   17025.00000000  .00000000  00000-0  00000-0 0 00761
2 40267 000.0132 253.7916 0001163 052.6935 318.6522 01.00269213  8460
HIMAWARI-8              
1 40267U 14060A   17019.00000000  .00000000  00000-0  00000-0 0 00753
2 40267 000.0400 268.1099 0000953 076.8187 274.2723 01.00272133  8402
HIMAWARI-8              
1 40267U 14060A   17011.00000000  .00000000  00000-0  00000-0 0 00744
2 40267 000.0272 277.5690 0001769 010.8529 322.9197 01.00269761  8324
HIMAWARI-8              
1 40267U 14060A   17005.04166667  .00000000  00000-0  00000-0 0 00732
2 40267 000.0402 245.4522 0000774 049.4207 325.5984 01.00272918  8267
